H1 CPF 01  gfz 2021 04 06 12  5962 terrasarx 
H2 0702601  6201 31698    2021 04 06 12 59 42 2021 04 11 00 00 42   120 1 1  0 0 0
H9
10 0 59311  59742.000000  0   -2918532.774   -267120.008  -6240852.035
10 0 59311  59862.000000  0   -2137690.604    101333.944  -6554323.858
10 0 59311  59982.000000  0   -1313502.139    453987.974  -6753430.262
10 0 59311  60102.000000  0    -460590.184    784104.975  -6834745.586
10 0 59311  60222.000000  0     405826.485   1085601.076  -6796870.395
10 0 59311  60342.000000  0    1270196.897   1353153.814  -6640453.649
10 0 59311  60462.000000  0    2116911.338   1582294.372  -6368185.111
10 0 59311  60582.000000  0    2930578.040   1769481.860  -5984753.815
10 0 59311  60702.000000  0    3696299.291   1912157.528  -5496774.630
10 0 59311  60822.000000  0    4399941.970   2008778.887  -4912685.040
10 0 59311  60942.000000  0    5028401.473   2058833.820  -4242611.184
10 0 59311  61062.000000  0    5569851.813   2062833.102  -3498201.960
10 0 59311  61182.000000  0    6013976.199   2022281.329  -2692435.017
10 0 59311  61302.000000  0    6352175.021   1939627.066  -1839396.373
10 0 59311  61422.000000  0    6577743.826   1818192.774   -954034.577
10 0 59311  61542.000000  0    6686016.402   1662085.057    -51896.131
10 0 59311  61662.000000  0    6674468.046   1476087.414    851154.419
10 0 59311  61782.000000  0    6542775.843   1265539.146   1739219.759
10 0 59311  61902.000000  0    6292837.724   1036202.387   2596658.947
10 0 59311  62022.000000  0    5928743.751    794120.185   3408371.963
10 0 59311  62142.000000  0    5456704.290    545470.724   4160072.736
10 0 59311  62262.000000  0    4884934.538    296420.584   4838544.189
10 0 59311  62382.000000  0    4223503.102     52981.947   5431871.615
10 0 59311  62502.000000  0    3484143.938   -179125.236   5929651.149
10 0 59311  62622.000000  0    2680038.488   -394600.088   6323166.621
10 0 59311  62742.000000  0    1825574.807   -588675.543   6605536.207
10 0 59311  62862.000000  0     936086.193   -757219.339   6771827.784
10 0 59311  62982.000000  0      27572.668   -896819.248   6819140.044
10 0 59311  63102.000000  0    -883587.209  -1004850.508   6746648.621
10 0 59311  63222.000000  0   -1780930.480  -1079525.121   6555618.765
10 0 59311  63342.000000  0   -2648205.518  -1119921.223   6249383.918
10 0 59311  63462.000000  0   -3469664.862  -1125992.492   5833292.240
10 0 59311  63582.000000  0   -4230353.997  -1098558.279   5314620.673
10 0 59311  63702.000000  0   -4916389.317  -1039274.957   4702453.952
10 0 59311  63822.000000  0   -5515219.119   -950587.486   4007530.182
10 0 59311  63942.000000  0   -6015861.541   -835662.562   3242055.266
10 0 59311  64062.000000  0   -6409114.576   -698304.694   2419490.547
10 0 59311  64182.000000  0   -6687736.286   -542857.016   1554315.884
10 0 59311  64302.000000  0   -6846587.690   -374089.110    661769.207
10 0 59311  64422.000000  0   -6882732.898   -197074.958   -242429.652
10 0 59311  64542.000000  0   -6795495.365    -17063.442  -1142364.690
10 0 59311  64662.000000  0   -6586467.587    160654.989  -2022212.949
10 0 59311  64782.000000  0   -6259476.379    330881.382  -2866528.892
10 0 59311  64902.000000  0   -5820504.913    488638.541  -3660522.391
10 0 59311  65022.000000  0   -5277569.919    629295.349  -4390320.609
10 0 59311  65142.000000  0   -4640562.147    748681.302  -5043208.403
10 0 59311  65262.000000  0   -3921053.235    843188.874  -5607843.870
10 0 59311  65382.000000  0   -3132075.338    909861.553  -6074446.280
10 0 59311  65502.000000  0   -2287877.921    946465.366  -6434953.942
10 0 59311  65622.000000  0   -1403668.166    951544.089  -6683152.097
10 0 59311  65742.000000  0    -495337.338    924457.082  -6814769.130
10 0 59311  65862.000000  0     420819.478    865398.440  -6827540.644
10 0 59311  65982.000000  0    1328387.305    775397.881  -6721245.501
10 0 59311  66102.000000  0    2211119.683    656303.099  -6497711.188
10 0 59311  66222.000000  0    3053223.673    510744.021  -6160785.391
10 0 59311  66342.000000  0    3839638.493    342079.632  -5716276.212
10 0 59311  66462.000000  0    4556302.588    154326.764  -5171861.557
10 0 59311  66582.000000  0    5190407.404    -47926.371  -4536968.659
10 0 59311  66702.000000  0    5730633.499   -259621.695  -3822621.525
10 0 59311  66822.000000  0    6167361.605   -475345.823  -3041258.422
10 0 59311  66942.000000  0    6492855.744   -689455.639  -2206522.483
10 0 59311  67062.000000  0    6701413.586   -896212.016  -1333026.184
10 0 59311  67182.000000  0    6789478.224  -1089918.016   -436094.245
10 0 59311  67302.000000  0    6755708.706  -1265058.750    468509.307
10 0 59311  67422.000000  0    6601007.038  -1416439.244   1364865.576
10 0 59311  67542.000000  0    6328499.591  -1539317.141   2237189.357
10 0 59311  67662.000000  0    5943473.750  -1629525.769   3070117.021
10 0 59311  67782.000000  0    5453269.964  -1683584.305   3848984.703
10 0 59311  67902.000000  0    4867133.946  -1698793.751   4560091.480
10 0 59311  68022.000000  0    4196032.994  -1673314.647   5190942.217
10 0 59311  68142.000000  0    3452442.085  -1606225.131   5730466.887
10 0 59311  68262.000000  0    2650102.572  -1497559.287   6169212.180
10 0 59311  68382.000000  0    1803761.288  -1348324.535   6499501.117
10 0 59311  68502.000000  0     928894.966  -1160498.266   6715561.948
10 0 59311  68622.000000  0      41423.971   -937002.627   6813623.253
10 0 59311  68742.000000  0    -842577.900   -681658.612   6791974.386
10 0 59311  68862.000000  0   -1707173.106   -399120.832   6650992.738
10 0 59311  68982.000000  0   -2536846.148    -94792.983   6393137.518
10 0 59311  69102.000000  0   -3316781.183    225274.462   6022910.476
10 0 59311  69222.000000  0   -4033128.406    554502.626   5546783.124
10 0 59311  69342.000000  0   -4673254.624    885916.714   4973089.651
10 0 59311  69462.000000  0   -5225972.784   1212290.745   4311887.089
10 0 59311  69582.000000  0   -5681745.995   1526301.793   3574782.966
10 0 59311  69702.000000  0   -6032860.555   1820690.127   2774733.923
10 0 59311  69822.000000  0   -6273565.501   2088421.890   1925818.204
10 0 59311  69942.000000  0   -6400175.225   2322850.542   1042985.141
10 0 59311  70062.000000  0   -6411130.969   2517873.373    141785.069
10 0 59311  70182.000000  0   -6307018.681   2668077.783   -761912.982
10 0 59311  70302.000000  0   -6090543.701   2768874.096  -1652209.711
10 0 59311  70422.000000  0   -5766463.044   2816612.117  -2513463.774
10 0 59311  70542.000000  0   -5341475.777   2808677.972  -3330574.371
10 0 59311  70662.000000  0   -4824075.658   2743567.984  -4089249.647
10 0 59311  70782.000000  0   -4224371.292   2620939.393  -4776256.405
10 0 59311  70902.000000  0   -3553878.266   2441636.486  -5379646.286
10 0 59311  71022.000000  0   -2825290.007   2207692.925  -5888954.618
10 0 59311  71142.000000  0   -2052233.030   1922310.585  -6295372.253
10 0 59311  71262.000000  0   -1249008.546   1589814.563  -6591887.034
10 0 59311  71382.000000  0    -430329.148   1215586.267  -6773392.506
10 0 59311  71502.000000  0     388946.109    805976.106  -6836766.152
10 0 59311  71622.000000  0    1194074.036    368197.819  -6780918.007
10 0 59311  71742.000000  0    1970687.712    -89796.064  -6606808.744
10 0 59311  71862.000000  0    2705046.915   -559455.140  -6317433.830
10 0 59311  71982.000000  0    3384277.323  -1031786.260  -5917778.114
10 0 59311  72102.000000  0    3996594.159  -1497520.696  -5414737.838
10 0 59311  72222.000000  0    4531508.446  -1947291.990  -4817013.813
10 0 59311  72342.000000  0    4980012.184  -2371822.266  -4134971.932
10 0 59311  72462.000000  0    5334737.439  -2762111.856  -3380473.592
10 0 59311  72582.000000  0    5590087.241  -3109628.908  -2566677.451
10 0 59311  72702.000000  0    5742333.943  -3406494.708  -1707813.822
10 0 59311  72822.000000  0    5789681.615  -3645660.069   -818936.701
10 0 59311  72942.000000  0    5732291.254  -3821069.057     84342.972
10 0 59311  73062.000000  0    5572266.631  -3927804.702    986137.369
10 0 59311  73182.000000  0    5313601.029  -3962214.180   1870569.758
10 0 59311  73302.000000  0    4962084.360  -3922007.013   2722064.113
10 0 59311  73422.000000  0    4525174.211  -3806325.053   3525626.825
10 0 59311  73542.000000  0    4011835.843  -3615783.350   4267116.589
10 0 59311  73662.000000  0    3432353.932  -3352481.575   4933497.715
10 0 59311  73782.000000  0    2798119.293  -3019983.859   5513070.202
10 0 59311  73902.000000  0    2121399.554  -2623268.789   5995672.830
10 0 59311  74022.000000  0    1415096.452  -2168651.556   6372856.816
10 0 59311  74142.000000  0     692496.347  -1663680.298   6638027.501
10 0 59311  74262.000000  0     -32981.493  -1117008.017   6786553.589
10 0 59311  74382.000000  0    -748034.070   -538242.477   6815842.688
10 0 59311  74502.000000  0   -1439717.407     62222.997   6725383.093
10 0 59311  74622.000000  0   -2095679.856    673395.700   6516752.242
10 0 59311  74742.000000  0   -2704382.104   1283883.964   6193591.101
10 0 59311  74862.000000  0   -3255300.868   1882108.441   5761544.831
10 0 59311  74982.000000  0   -3739113.505   2456521.456   5228170.797
10 0 59311  75102.000000  0   -4147860.561   2995831.486   4602812.707
10 0 59311  75222.000000  0   -4475082.359   3489227.401   3896442.044
10 0 59311  75342.000000  0   -4715927.359   3926597.912   3121468.947
10 0 59311  75462.000000  0   -4867228.452   4298742.086   2291525.110
10 0 59311  75582.000000  0   -4927546.124   4597566.859   1421222.493
10 0 59311  75702.000000  0   -4897176.182   4816264.464    525890.297
10 0 59311  75822.000000  0   -4778122.618   4949464.446   -378702.020
10 0 59311  75942.000000  0   -4574036.788   4993359.153  -1276631.226
10 0 59311  76062.000000  0   -4290120.500   4945797.439  -2152111.299
10 0 59311  76182.000000  0   -3932998.831   4806343.636  -2989778.338
99
